{
  "type": "FeatureCollection",
  "features": [
    {
      "type": "Feature",
      "properties": {
        "norad_id": 35432,
        "name": "COSMOS 2251 DEB",
        "group": "cosmos-2251-debris",
        "lat": 4.040628723445768,
        "lon": 21.17535463895804,
        "alt_km": 493.34487547647404,
        "timestamp": "2025-12-10T14:53:37.483801+00:00",
        "meta_object_name": "COSMOS 2251 DEB",
        "meta_object_id": "1993-036AKA",
        "meta_epoch": "2025-12-10T02:15:21.827232",
        "meta_mean_motion": 15.22051238,
        "meta_eccentricity": 0.00123831,
        "meta_inclination": 74.0231,
        "meta_ra_of_asc_node": 21.1234,
        "meta_arg_of_pericenter": 344.9904,
        "meta_mean_anomaly": 15.0925,
        "meta_ephemeris_type": 0,
        "meta_classification_type": "U",
        "meta_norad_cat_id": 35432,
        "meta_element_set_no": 999,
        "meta_rev_at_epoch": 87463,
        "meta_bstar": 0.0070593041,
        "meta_mean_motion_dot": 0.00165457,
        "meta_mean_motion_ddot": 0,
        "tle_line1": "1 35432U 93036AKA 25344.09400263  .00165457  00000+0  70593-2 0  9993",
        "tle_line2": "2 35432  74.0231  21.1234 0012383 344.9904  15.0925 15.22051238874638"
      },
      "geometry": {
        "type": "Point",
        "coordinates": [
          21.17535463895804,
          4.040628723445768
        ]
      }
    },
    {
      "type": "Feature",
      "properties": {
        "norad_id": 35433,
        "name": "COSMOS 2251 DEB",
        "group": "cosmos-2251-debris",
        "lat": 45.529623172578354,
        "lon": 145.375989922671,
        "alt_km": 772.7030031960012,
        "timestamp": "2025-12-10T14:53:37.483810+00:00",
        "meta_object_name": "COSMOS 2251 DEB",
        "meta_object_id": "1993-036AKB",
        "meta_epoch": "2025-12-05T19:38:16.327392",
        "meta_mean_motion": 14.34730306,
        "meta_eccentricity": 0.00254596,
        "meta_inclination": 74.0335,
        "meta_ra_of_asc_node": 351.128,
        "meta_arg_of_pericenter": 48.4343,
        "meta_mean_anomaly": 128.9694,
        "meta_ephemeris_type": 0,
        "meta_classification_type": "U",
        "meta_norad_cat_id": 35433,
        "meta_element_set_no": 999,
        "meta_rev_at_epoch": 86481,
        "meta_bstar": 0.00044039966,
        "meta_mean_motion_dot": 1.226e-05,
        "meta_mean_motion_ddot": 0,
        "tle_line1": "1 35433U 93036AKB 25339.81824453  .00001226  00000+0  44040-3 0  9991",
        "tle_line2": "2 35433  74.0335 351.1280 0025459  48.4343 128.9694 14.34730306864810"
      },
      "geometry": {
        "type": "Point",
        "coordinates": [
          145.375989922671,
          45.529623172578354
        ]
      }
    },
    {
      "type": "Feature",
      "properties": {
        "norad_id": 35434,
        "name": "COSMOS 2251 DEB",
        "group": "cosmos-2251-debris",
        "lat": 60.04780747850568,
        "lon": 7.6744968129271225,
        "alt_km": 862.4539029078378,
        "timestamp": "2025-12-10T14:53:37.483818+00:00",
        "meta_object_name": "COSMOS 2251 DEB",
        "meta_object_id": "1993-036AKC",
        "meta_epoch": "2025-12-10T00:52:32.487168",
        "meta_mean_motion": 14.25675251,
        "meta_eccentricity": 0.00875414,
        "meta_inclination": 74.0403,
        "meta_ra_of_asc_node": 218.5045,
        "meta_arg_of_pericenter": 289.7941,
        "meta_mean_anomaly": 69.3783,
        "meta_ephemeris_type": 0,
        "meta_classification_type": "U",
        "meta_norad_cat_id": 35434,
        "meta_element_set_no": 999,
        "meta_rev_at_epoch": 86079,
        "meta_bstar": 0.00086488771,
        "meta_mean_motion_dot": 2.109e-05,
        "meta_mean_motion_ddot": 0,
        "tle_line1": "1 35434U 93036AKC 25344.03648712  .00002109  00000+0  86489-3 0  9998",
        "tle_line2": "2 35434  74.0403 218.5045 0087541 289.7941  69.3783 14.25675251860793"
      },
      "geometry": {
        "type": "Point",
        "coordinates": [
          7.6744968129271225,
          60.04780747850568
        ]
      }
    },
    {
      "type": "Feature",
      "properties": {
        "norad_id": 35435,
        "name": "COSMOS 2251 DEB",
        "group": "cosmos-2251-debris",
        "lat": -73.67919074826945,
        "lon": 6.562199141221991,
        "alt_km": 638.9440373672232,
        "timestamp": "2025-12-10T14:53:37.483827+00:00",
        "meta_object_name": "COSMOS 2251 DEB",
        "meta_object_id": "1993-036AKD",
        "meta_epoch": "2025-12-09T15:01:26.253984",
        "meta_mean_motion": 14.78296996,
        "meta_eccentricity": 0.0008431,
        "meta_inclination": 74.0096,
        "meta_ra_of_asc_node": 110.1934,
        "meta_arg_of_pericenter": 204.3804,
        "meta_mean_anomaly": 171.3838,
        "meta_ephemeris_type": 0,
        "meta_classification_type": "U",
        "meta_norad_cat_id": 35435,
        "meta_element_set_no": 999,
        "meta_rev_at_epoch": 87493,
        "meta_bstar": 0.0036525,
        "meta_mean_motion_dot": 0.00026633,
        "meta_mean_motion_ddot": 0,
        "tle_line1": "1 35435U 93036AKD 25343.62599831  .00026633  00000+0  36525-2 0  9993",
        "tle_line2": "2 35435  74.0096 110.1934 0008431 204.3804 171.3838 14.78296996874937"
      },
      "geometry": {
        "type": "Point",
        "coordinates": [
          6.562199141221991,
          -73.67919074826945
        ]
      }
    },
    {
      "type": "Feature",
      "properties": {
        "norad_id": 35439,
        "name": "COSMOS 2251 DEB",
        "group": "cosmos-2251-debris",
        "lat": 48.899086590165936,
        "lon": -60.80572660133725,
        "alt_km": 1090.5121735706543,
        "timestamp": "2025-12-10T14:53:37.483836+00:00",
        "meta_object_name": "COSMOS 2251 DEB",
        "meta_object_id": "1993-036AKH",
        "meta_epoch": "2025-12-09T17:39:24.182784",
        "meta_mean_motion": 13.92788449,
        "meta_eccentricity": 0.02417896,
        "meta_inclination": 74.0194,
        "meta_ra_of_asc_node": 139.886,
        "meta_arg_of_pericenter": 309.8567,
        "meta_mean_anomaly": 63.37,
        "meta_ephemeris_type": 0,
        "meta_classification_type": "U",
        "meta_norad_cat_id": 35439,
        "meta_element_set_no": 999,
        "meta_rev_at_epoch": 83919,
        "meta_bstar": 0.0021895802,
        "meta_mean_motion_dot": 3.579e-05,
        "meta_mean_motion_ddot": 0,
        "tle_line1": "1 35439U 93036AKH 25343.73569656  .00003579  00000+0  21896-2 0  9990",
        "tle_line2": "2 35439  74.0194 139.8860 0241789 309.8567  63.3700 13.92788449839199"
      },
      "geometry": {
        "type": "Point",
        "coordinates": [
          -60.80572660133725,
          48.899086590165936
        ]
      }
    },
    {
      "type": "Feature",
      "properties": {
        "norad_id": 35440,
        "name": "COSMOS 2251 DEB",
        "group": "cosmos-2251-debris",
        "lat": -19.479520189879494,
        "lon": -154.08537495520375,
        "alt_km": 622.2995182972745,
        "timestamp": "2025-12-10T14:53:37.483845+00:00",
        "meta_object_name": "COSMOS 2251 DEB",
        "meta_object_id": "1993-036AKJ",
        "meta_epoch": "2025-12-08T09:02:26.366784",
        "meta_mean_motion": 14.68778885,
        "meta_eccentricity": 0.0069124,
        "meta_inclination": 74.0147,
        "meta_ra_of_asc_node": 216.0804,
        "meta_arg_of_pericenter": 357.9704,
        "meta_mean_anomaly": 2.1175,
        "meta_ephemeris_type": 0,
        "meta_classification_type": "U",
        "meta_norad_cat_id": 35440,
        "meta_element_set_no": 999,
        "meta_rev_at_epoch": 68701,
        "meta_bstar": 0.00070103994,
        "meta_mean_motion_dot": 4.21e-05,
        "meta_mean_motion_ddot": 0,
        "tle_line1": "1 35440U 93036AKJ 25342.37669406  .00004210  00000+0  70104-3 0  9995",
        "tle_line2": "2 35440  74.0147 216.0804 0069124 357.9704   2.1175 14.68778885687019"
      },
      "geometry": {
        "type": "Point",
        "coordinates": [
          -154.08537495520375,
          -19.479520189879494
        ]
      }
    },
    {
      "type": "Feature",
      "properties": {
        "norad_id": 35441,
        "name": "COSMOS 2251 DEB",
        "group": "cosmos-2251-debris",
        "lat": -17.88261047503848,
        "lon": -63.127622711773334,
        "alt_km": 710.2076920534828,
        "timestamp": "2025-12-10T14:53:37.483854+00:00",
        "meta_object_name": "COSMOS 2251 DEB",
        "meta_object_id": "1993-036AKK",
        "meta_epoch": "2025-12-08T15:22:12.064224",
        "meta_mean_motion": 14.62488563,
        "meta_eccentricity": 0.0037245,
        "meta_inclination": 74.1346,
        "meta_ra_of_asc_node": 305.9066,
        "meta_arg_of_pericenter": 204.2337,
        "meta_mean_anomaly": 155.708,
        "meta_ephemeris_type": 0,
        "meta_classification_type": "U",
        "meta_norad_cat_id": 35441,
        "meta_element_set_no": 999,
        "meta_rev_at_epoch": 87370,
        "meta_bstar": 0.0024987,
        "meta_mean_motion_dot": 0.00012785,
        "meta_mean_motion_ddot": 0,
        "tle_line1": "1 35441U 93036AKK 25342.64041741  .00012785  00000+0  24987-2 0  9995",
        "tle_line2": "2 35441  74.1346 305.9066 0037245 204.2337 155.7080 14.62488563873703"
      },
      "geometry": {
        "type": "Point",
        "coordinates": [
          -63.127622711773334,
          -17.88261047503848
        ]
      }
    }
  ]
}